FENGYUN 3A              
1 32958U 08026A   26175.09568399  .00000041  00000+0  39856-4 0  9992
2 32958  98.6884 115.7997 0009804 105.7515 254.4743 14.19572310936387
EWS-G2 (GOES 15)        
1 36411U 10008A   26175.11172619  .00000027  00000+0  00000+0 0  9990
2 36411   1.2971  82.7580 0005175  42.3240 251.0022  1.00267670 59702
FENGYUN 3B              
1 37214U 10059A   26175.31105407 -.00000376  00000+0 -17119-3 0  9993
2 37214  98.9619 221.3560 0022322 163.7705 288.5796 14.14841469808430
EXACTVIEW-1 (ADS-1B)    
1 38709U 12039C   26175.19215887  .00000088  00000+0  57390-4 0  9997
2 38709  98.9784 292.7408 0011499 147.1161 213.0735 14.24986367723701
FENGYUN 3C              
1 39260U 13052A   26175.25250667  .00000065  00000+0  54028-4 0  9998
2 39260  98.4982 148.8030 0014858   7.9080 352.2326 14.15756362659560
DUBAISAT-2              
1 39419U 13066D   26175.29292308  .00003175  00000+0  19777-3 0  9997
2 39419  97.4572 165.2507 0011713  19.1199 341.0468 15.10229000687468
FENGYUN 2G              
1 40367U 14090A   26174.90415929 -.00000299  00000+0  00000+0 0  9992
2 40367   5.6568  72.7393 0003593 152.9330 111.5572  1.00269968 42061
ELEKTRO-L 2             
1 41105U 15074A   26174.95372752 -.00000116  00000+0  00000+0 0  9995
2 41105   6.7110  70.4435 0000765 277.7123 252.7626  1.00271133 38579
FENGYUN 2H              
1 43491U 18050A   26175.11484620 -.00000124  00000+0  00000+0 0  9998
2 43491   3.0500  79.0011 0001675 128.9794 184.9906  1.00269578 29509
EOS-4                   
1 51656U 22013A   26175.30915444  .00001134  00000+0  68400-4 0  9992
2 51656  97.5111 181.8502 0001901  89.2792 270.8657 15.12725773240564
